NORAD_CAT_ID,OBJECT_NAME,OBJECT_TYPE,EPOCH,MEAN_MOTION,ECCENTRICITY,INCLINATION,RA_OF_ASC_NODE,ARG_OF_PERICENTER,MEAN_ANOMALY,BSTAR,MEAN_MOTION_DOT,MEAN_MOTION_DDOT,TLE_LINE0,TLE_LINE1,TLE_LINE2,SEMIMAJOR_AXIS,PERIOD,APOGEE,PERIGEE,DECAYED
53176.0,STARLINK-4294,PAYLOAD,2022-12-12 17:17:22,15.08847038,0.0002099,53.2191,59.6668,42.0942,318.0211,0.00035679,5.396e-05,0.0,0 STARLINK-4294,1 53176U 22083AW  22346.72039693  .00005396  00000-0  35679-3 0  9999,2 53176  53.2191  59.6668 0002099  42.0942 318.0211 15.08847038 23618,6917.859,95.437,541.1759999999998,538.2719999999998,0.0
53176.0,STARLINK-4294,PAYLOAD,2022-12-13 13:57:22,15.08847735,0.0002101,53.2189,55.8014,42.287,317.8284,0.00013164,1.808e-05,0.0,0 STARLINK-4294,1 53176U 22083AW  22347.58151299  .00001808  00000-0  13164-3 0  9990,2 53176  53.2189  55.8014 0002101  42.2870 317.8284 15.08847735 23109,6917.857,95.437,541.175,538.268,0.0
53176.0,STARLINK-4294,PAYLOAD,2022-12-13 17:08:09,15.08839899,0.0002147,53.2192,55.2067,41.7219,318.3937,7.3604e-06,-1.71e-06,0.0,0 STARLINK-4294,1 53176U 22083AW  22347.71399719 -.00000171  00000-0  73604-5 0  9996,2 53176  53.2192  55.2067 0002147  41.7219 318.3937 15.08839899 23761,6917.880999999999,95.438,541.231,538.26,0.0
53176.0,STARLINK-4294,PAYLOAD,2022-12-14 07:26:37,15.08852614,0.0002186,53.2188,52.5306,39.9285,320.1867,0.00022899,3.359e-05,0.0,0 STARLINK-4294,1 53176U 22083AW  22348.31015069  .00003359  00000-0  22899-3 0  9994,2 53176  53.2188  52.5306 0002186  39.9285 320.1867 15.08852614 23850,6917.842,95.437,541.219,538.195,0.0
53176.0,STARLINK-4294,PAYLOAD,2022-12-14 12:12:46,15.08844265,0.0002098,53.219,51.6385,39.3631,320.7513,7.0294e-05,8.31e-06,0.0,0 STARLINK-4294,1 53176U 22083AW  22348.50887339  .00000831  00000-0  70294-4 0  9997,2 53176  53.2190  51.6385 0002098  39.3631 320.7513 15.08844265 23241,6917.8669999999975,95.437,541.184,538.281,0.0
53176.0,STARLINK-4294,PAYLOAD,2022-12-14 20:09:42,15.08853697,0.000213,53.219,50.1517,38.6816,321.4328,0.00034984,5.286e-05,0.0,0 STARLINK-4294,1 53176U 22083AW  22348.84006974  .00005286  00000-0  34984-3 0  9996,2 53176  53.2190  50.1517 0002130  38.6816 321.4328 15.08853697 23292,6917.839,95.437,541.177,538.23,0.0
53176.0,STARLINK-4294,PAYLOAD,2022-12-15 04:06:37,15.08849569,0.0002084,53.2187,48.665,37.1756,322.938,0.00029203,4.364e-05,0.0,0 STARLINK-4294,1 53176U 22083AW  22349.17127032  .00004364  00000-0  29203-3 0  9996,2 53176  53.2187  48.6650 0002084  37.1756 322.9380 15.08849569 23986,6917.851,95.437,541.158,538.274,0.0
53176.0,STARLINK-4294,PAYLOAD,2022-12-15 13:38:56,15.08844465,0.0002131,53.2191,46.8812,37.5301,322.584,0.00010717,1.418e-05,0.0,0 STARLINK-4294,1 53176U 22083AW  22349.56871088  .00001418  00000-0  10717-3 0  9993,2 53176  53.2191  46.8812 0002131  37.5301 322.5840 15.08844465 23408,6917.8669999999975,95.437,541.206,538.258,0.0
53176.0,STARLINK-4294,PAYLOAD,2022-12-15 15:14:19,15.0884207,0.0002126,53.2191,46.5838,37.6763,322.4378,5.6143e-05,6.05e-06,0.0,0 STARLINK-4294,1 53176U 22083AW  22349.63495171  .00000605  00000-0  56143-4 0  9997,2 53176  53.2191  46.5838 0002126  37.6763 322.4378 15.08842070 24057,6917.874,95.437,541.21,538.268,0.0
53176.0,STARLINK-4294,PAYLOAD,2022-12-16 13:29:43,15.08846998,0.000225,53.2193,42.4211,36.2499,323.8645,0.00026549,3.94e-05,0.0,0 STARLINK-4294,1 53176U 22083AW  22350.56230885  .00003940  00000-0  26549-3 0  9991,2 53176  53.2193  42.4211 0002250  36.2499 323.8645 15.08846998 23557,6917.859,95.437,541.281,538.1669999999998,0.0
53176.0,STARLINK-4294,PAYLOAD,2022-12-16 18:15:53,15.08837874,0.0002298,53.2192,41.5286,34.9642,325.1501,9.9738e-05,1.299e-05,0.0,0 STARLINK-4294,1 53176U 22083AW  22350.76103283  .00001299  00000-0  99738-4 0  9990,2 53176  53.2192  41.5286 0002298  34.9642 325.1501 15.08837874 24229,6917.887,95.438,541.342,538.1619999999998,0.0
53176.0,STARLINK-4294,PAYLOAD,2022-12-17 11:45:08,15.08836756,0.0002222,53.2194,38.2581,33.0263,327.0867,0.00018562,2.667e-05,0.0,0 STARLINK-4294,1 53176U 22083AW  22351.48967617  .00002667  00000-0  18562-3 0  9994,2 53176  53.2194  38.2581 0002222  33.0263 327.0867 15.08836756 23692,6917.89,95.438,541.2919999999998,538.2180000000002,0.0
53176.0,STARLINK-4294,PAYLOAD,2022-12-18 03:38:59,15.0883441,0.0002206,53.2195,35.2846,32.7182,327.3946,0.00010208,1.336e-05,0.0,0 STARLINK-4294,1 53176U 22083AW  22352.15207948  .00001336  00000-0  10208-3 0  9994,2 53176  53.2195  35.2846 0002206  32.7182 327.3946 15.08834410 24431,6917.897,95.438,541.289,538.236,0.0
53176.0,STARLINK-4294,PAYLOAD,2022-12-18 13:11:18,15.0883811,0.0002221,53.2195,33.5008,33.4912,326.622,0.00015826,2.231e-05,0.0,0 STARLINK-4294,1 53176U 22083AW  22352.54951951  .00002231  00000-0  15826-3 0  9993,2 53176  53.2195  33.5008 0002221  33.4912 326.6220 15.08838110 23851,6917.886,95.438,541.288,538.215,0.0
53176.0,STARLINK-4294,PAYLOAD,2022-12-18 19:32:51,15.08831501,0.0002241,53.2194,32.3112,34.457,325.6567,1.2973e-05,-8.2e-07,0.0,0 STARLINK-4294,1 53176U 22083AW  22352.81448328 -.00000082  00000-0  12973-4 0  9996,2 53176  53.2194  32.3112 0002241  34.4570 325.6567 15.08831501 23890,6917.906,95.438,541.322,538.221,0.0
53176.0,STARLINK-4294,PAYLOAD,2022-12-19 06:40:33,15.08840438,0.0002475,53.2186,30.2273,25.6156,334.4958,0.00018844,2.712e-05,0.0,0 STARLINK-4294,1 53176U 22083AW  22353.27816125  .00002712  00000-0  18844-3 0  9994,2 53176  53.2186  30.2273 0002475  25.6156 334.4958 15.08840438 24608,6917.879,95.438,541.456,538.0319999999998,0.0
53176.0,STARLINK-4294,PAYLOAD,2022-12-19 19:23:37,15.08849875,0.0002227,53.2193,27.8509,31.8546,328.2580000000001,0.00027933,4.161e-05,0.0,0 STARLINK-4294,1 53176U 22083AW  22353.80807627  .00004161  00000-0  27933-3 0  9999,2 53176  53.2193  27.8509 0002227  31.8546 328.2580 15.08849875 24041,6917.85,95.437,541.256,538.175,0.0
53176.0,STARLINK-4294,PAYLOAD,2022-12-20 01:45:10,15.08851869,0.0002217,53.2195,26.6615,32.0444,328.0683,0.00031977,4.806e-05,0.0,0 STARLINK-4294,1 53176U 22083AW  22354.07303490  .00004806  00000-0  31977-3 0  9997,2 53176  53.2195  26.6615 0002217  32.0444 328.0683 15.08851869 24720,6917.844,95.437,541.243,538.175,0.0
53176.0,STARLINK-4294,PAYLOAD,2022-12-20 11:17:28,15.08858539,0.0002223,53.2195,24.8772,32.1602,327.9525,0.00039526,6.011e-05,0.0,0 STARLINK-4294,1 53176U 22083AW  22354.47047056  .00006011  00000-0  39526-3 0  9992,2 53176  53.2195  24.8772 0002223  32.1602 327.9525 15.08858539 24148,6917.824000000001,95.436,541.227,538.151,0.0
53176.0,STARLINK-4294,PAYLOAD,2022-12-21 03:11:20,15.0883003,0.0002073,53.2191,21.9041,29.1115,330.9992,-0.00045274,-7.485e-05,0.0,0 STARLINK-4294,1 53176U 22083AW  22355.13287326 -.00007485  00000-0 -45274-3 0  9997,2 53176  53.2191  21.9041 0002073  29.1115 330.9992 15.08830030 24888,6917.911,95.438,541.21,538.342,0.0
53176.0,STARLINK-4294,PAYLOAD,2022-12-21 11:08:16,15.0882571,0.0002317,53.2195,20.4168,32.24,327.8734,-0.00032516,-5.458e-05,0.0,0 STARLINK-4294,1 53176U 22083AW  22355.46408235 -.00005458  00000-0 -32516-3 0  9990,2 53176  53.2195  20.4168 0002317  32.2400 327.8734 15.08825710 24292,6917.924,95.438,541.3919999999998,538.186,0.0
53176.0,STARLINK-4294,PAYLOAD,2022-12-22 07:48:17,15.08843899,0.0002299,53.2204,16.5511,32.5934,327.52,5.9024e-05,6.51e-06,0.0,0 STARLINK-4294,1 53176U 22083AW  22356.32520004  .00000651  00000-0  59024-4 0  9997,2 53176  53.2204  16.5511 0002299  32.5934 327.5200 15.08843899 25064,6917.868,95.437,541.3240000000002,538.143,0.0
53176.0,STARLINK-4294,PAYLOAD,2022-12-22 10:59:03,15.0884758,0.000229,53.2203,15.9563,32.769,327.3444,6.8571e-05,8.03e-06,0.0,0 STARLINK-4294,1 53176U 22083AW  22356.45767685  .00000803  00000-0  68571-4 0  9995,2 53176  53.2203  15.9563 0002290  32.7690 327.3444 15.08847580 24445,6917.857,95.437,541.306,538.138,0.0
53176.0,STARLINK-4294,PAYLOAD,2022-12-23 07:39:04,15.08839364,0.0002376,53.2205,12.0899,34.1764,325.9381,-8.274e-05,-1.605e-05,0.0,0 STARLINK-4294,1 53176U 22083AW  22357.31880676 -.00001605  00000-0 -82740-4 0  9994,2 53176  53.2205  12.0899 0002376  34.1764 325.9381 15.08839364 25211,6917.882,95.438,541.391,538.104,0.0
53176.0,STARLINK-4294,PAYLOAD,2022-12-23 10:49:52,15.08822055,0.0002216,53.2205,11.4951,35.1513,324.9625,0.00013451,1.852e-05,0.0,0 STARLINK-4294,1 53176U 22083AW  22357.45129671  .00001852  00000-0  13451-3 0  9994,2 53176  53.2205  11.4951 0002216  35.1513 324.9625 15.08822055 24598,6917.935,95.439,541.3330000000002,538.2669999999998,0.0
53176.0,STARLINK-4294,PAYLOAD,2022-12-23 23:32:56,15.08840034,0.0002294,53.2202,9.1187,26.2177,333.8931,0.00013524,1.865e-05,0.0,0 STARLINK-4294,1 53176U 22083AW  22357.98120795  .00001865  00000-0  13524-3 0  9995,2 53176  53.2202   9.1187 0002294  26.2177 333.8931 15.08840034 25310,6917.88,95.438,541.332,538.158,0.0
53176.0,STARLINK-4294,PAYLOAD,2022-12-24 10:40:37,15.08853864,0.0002429,53.2203,7.0378,28.9977,331.115,0.00010188,1.334e-05,0.0,0 STARLINK-4294,1 53176U 22083AW  22358.44488160  .00001334  00000-0  10188-3 0  9994,2 53176  53.2203   7.0378 0002429  28.9977 331.1150 15.08853864 25383,6917.8380000000025,95.437,541.383,538.023,0.0
53176.0,STARLINK-4294,PAYLOAD,2022-12-24 12:16:01,15.08850201,0.0002342,53.2199,6.7389,31.4954,328.6178,0.00015054,2.109e-05,0.0,0 STARLINK-4294,1 53176U 22083AW  22358.51112327  .00002109  00000-0  15054-3 0  9999,2 53176  53.2199   6.7389 0002342  31.4954 328.6178 15.08850201 24756,6917.849,95.437,541.3340000000002,538.094,0.0
53176.0,STARLINK-4294,PAYLOAD,2022-12-25 00:59:06,15.0884039,0.0002346,53.2201,4.3603,32.9584,327.1554,0.00019791,2.863e-05,0.0,0 STARLINK-4294,1 53176U 22083AW  22359.04104795  .00002863  00000-0  19791-3 0  9997,2 53176  53.2201   4.3603 0002346  32.9584 327.1554 15.08840390 25472,6917.879,95.438,541.367,538.121,0.0
